[{"OBJECT_NAME":"STARLINK-32817","OBJECT_ID":"2025-037C","EPOCH":"2026-03-09T22:51:34.589952","MEAN_MOTION":14.98326829,"ECCENTRICITY":0.00027671,"INCLINATION":70.0031,"RA_OF_ASC_NODE":353.7002,"ARG_OF_PERICENTER":263.1614,"MEAN_ANOMALY":96.923,"EPHEMERIS_TYPE":0,"CLASSIFICATION_TYPE":"U","NORAD_CAT_ID":63079,"ELEMENT_SET_NO":999,"REV_AT_EPOCH":5863,"BSTAR":0.00023347418,"MEAN_MOTION_DOT":2.694e-5,"MEAN_MOTION_DDOT":0},{"OBJECT_NAME":"COSMOS 44","OBJECT_ID":"1964-053A","EPOCH":"2026-03-09T21:59:01.891968","MEAN_MOTION":14.65674855,"ECCENTRICITY":0.01500487,"INCLINATION":65.0577,"RA_OF_ASC_NODE":259.0656,"ARG_OF_PERICENTER":297.9455,"MEAN_ANOMALY":60.6525,"EPHEMERIS_TYPE":0,"CLASSIFICATION_TYPE":"U","NORAD_CAT_ID":876,"ELEMENT_SET_NO":999,"REV_AT_EPOCH":27412,"BSTAR":5.8309856e-5,"MEAN_MOTION_DOT":2.3e-6,"MEAN_MOTION_DDOT":0}]
